[
  {
    "name": "PLEIADES NEO 3",
    "line1": "1 48268U 21034A   25349.22717378  .00001927  00000+0  25143-3 0  9994",
    "line2": "2 48268  97.8945  61.6322 0001320  93.5672 266.5692 14.81673903250410",
    "catNr": 48268
  },
  {
    "name": "PLEIADES NEO 4",
    "line1": "1 49070U 21073E   25349.32846308  .00000052  00000+0  13202-4 0  9998",
    "line2": "2 49070  97.8945  61.7280 0001306  89.8966 270.2397 14.81671544234149",
    "catNr": 49070
  }
]